NORAD_CAT_ID,OBJECT_NAME,OBJECT_TYPE,EPOCH,MEAN_MOTION,ECCENTRICITY,INCLINATION,RA_OF_ASC_NODE,ARG_OF_PERICENTER,MEAN_ANOMALY,BSTAR,MEAN_MOTION_DOT,MEAN_MOTION_DDOT,TLE_LINE0,TLE_LINE1,TLE_LINE2,SEMIMAJOR_AXIS,PERIOD,APOGEE,PERIGEE,DECAYED
52547.0,STARLINK-3869,PAYLOAD,2024-02-06 03:49:37,15.08765608,0.0001452,53.2184,317.2496,86.6198,273.496,0.0025439,0.00040348,0.0,0 STARLINK-3869,1 52547U 22051Q   24037.15946728  .00040348  00000-0  25439-2 0  9995,2 52547  53.2184 317.2496 0001452  86.6198 273.4960 15.08765608 96327,6918.108,95.442,540.977,538.968,0.0
52547.0,STARLINK-3869,PAYLOAD,2024-02-06 22:54:13,15.08837591,0.000156,53.2172,313.6847,98.5117,261.6052,4.6534e-05,4.53e-06,0.0,0 STARLINK-3869,1 52547U 22051Q   24037.95432400  .00000453  00000-0  46534-4 0  9994,2 52547  53.2172 313.6847 0001560  98.5117 261.6052 15.08837591 96374,6917.888,95.438,540.832,538.674,0.0
52547.0,STARLINK-3869,PAYLOAD,2024-02-07 06:00:00,15.08793489,0.0001331,53.2167,312.3589,73.6322,93.4948,0.0027417,0.0004356,0.0,0 STARLINK-3869,1 52547U 22051Q   24038.25001157  .00043560  00000-0  27417-2 0  9992,2 52547  53.2167 312.3589 0001331  73.6322  93.4948 15.08793489 96490,6918.023,95.44,540.808,538.967,0.0
52547.0,STARLINK-3869,PAYLOAD,2024-02-07 14:00:01,15.08795872,0.0001276,53.2169,310.8608,81.8338,96.8537,0.0039276,0.000627,0.0,0 STARLINK-3869,1 52547U 22051Q   24038.58334491  .00062700  00000-0  39276-2 0  9991,2 52547  53.2169 310.8608 0001276  81.8338  96.8537 15.08795872  5829,6918.015,95.44,540.763,538.998,0.0
52547.0,STARLINK-3869,PAYLOAD,2024-02-07 22:00:00,15.08865016,0.0001386,53.217,309.3655,82.3711,107.8793,-0.002288,-0.00036542,0.0,0 STARLINK-3869,1 52547U 22051Q   24038.91667824 -.00036542  00000-0 -22880-2 0  9997,2 52547  53.2170 309.3655 0001386  82.3711 107.8793 15.08865016 96598,6917.804,95.436,540.628,538.71,0.0
52547.0,STARLINK-3869,PAYLOAD,2024-02-08 00:00:02,15.08868767,0.0001385,53.2169,308.9918,80.0935,203.1221,-0.0036267,-0.0005759,0.0,0 STARLINK-3869,1 52547U 22051Q   24039.00002315 -.00057590  00000-0 -36267-2 0  9996,2 52547  53.2169 308.9918 0001385  80.0935 203.1221 15.08868767  5834,6917.792,95.436,540.616,538.699,0.0
52547.0,STARLINK-3869,PAYLOAD,2024-02-08 22:35:47,15.08847034,0.0001428,53.2173,304.76,98.1146,262.0008,0.00020775,3.021e-05,0.0,0 STARLINK-3869,1 52547U 22051Q   24039.94152692  .00003021  00000-0  20775-3 0  9999,2 52547  53.2173 304.7600 0001428  98.1146 262.0008 15.08847034 96676,6917.859,95.437,540.712,538.736,0.0
52547.0,STARLINK-3869,PAYLOAD,2024-02-09 03:21:57,15.08850347,0.0001482,53.2177,303.8673,102.6416,257.4742,0.00041081,6.258e-05,0.0,0 STARLINK-3869,1 52547U 22051Q   24040.14024662  .00006258  00000-0  41081-3 0  9996,2 52547  53.2177 303.8673 0001482 102.6416 257.4742 15.08850347 96776,6917.849,95.437,540.739,538.689,0.0
52547.0,STARLINK-3869,PAYLOAD,2024-02-09 08:08:06,15.08847248,0.0001316,53.2173,302.9839,64.7822,295.3307,0.00031151,4.674e-05,0.0,0 STARLINK-3869,1 52547U 22051Q   24040.33896863  .00004674  00000-0  31151-3 0  9994,2 52547  53.2173 302.9839 0001316  64.7822 295.3307 15.08847248 96731,6917.858,95.437,540.634,538.813,0.0
52547.0,STARLINK-3869,PAYLOAD,2024-02-10 03:12:44,15.08840035,0.0001617,53.2182,299.4068,82.1568,277.9608,0.00011152,1.487e-05,0.0,0 STARLINK-3869,1 52547U 22051Q   24041.13385055  .00001487  00000-0  11152-3 0  9997,2 52547  53.2182 299.4068 0001617  82.1568 277.9608 15.08840035 96928,6917.88,95.438,540.864,538.627,0.0
52547.0,STARLINK-3869,PAYLOAD,2024-02-10 22:17:22,15.08847345,0.0001565,53.2175,295.8385,83.0489,277.0681,0.00054559,8.407e-05,0.0,0 STARLINK-3869,1 52547U 22051Q   24041.92873167  .00008407  00000-0  54559-3 0  9997,2 52547  53.2175 295.8385 0001565  83.0489 277.0681 15.08847345 96974,6917.858,95.437,540.806,538.64,0.0
52547.0,STARLINK-3869,PAYLOAD,2024-02-10 23:52:45,15.08852436,0.0001516,53.2172,295.5408,90.4079,269.7087,0.00070326,0.00010926,0.0,0 STARLINK-3869,1 52547U 22051Q   24041.99497019  .00010926  00000-0  70326-3 0  9991,2 52547  53.2172 295.5408 0001516  90.4079 269.7087 15.08852436 97052,6917.842,95.437,540.756,538.659,0.0
52547.0,STARLINK-3869,PAYLOAD,2024-02-11 20:32:46,15.08846627,0.0001422,53.2169,291.6759,85.7033,274.4122,0.0002757,4.103e-05,0.0,0 STARLINK-3869,1 52547U 22051Q   24042.85608948  .00004103  00000-0  27570-3 0  9995,2 52547  53.2169 291.6759 0001422  85.7033 274.4122 15.08846627 97189,6917.86,95.437,540.709,538.741,0.0
52547.0,STARLINK-3869,PAYLOAD,2024-02-11 22:08:09,15.08846531,0.0001441,53.2172,291.3786,77.6627,282.4526,0.00027202,4.045e-05,0.0,0 STARLINK-3869,1 52547U 22051Q   24042.92232969  .00004045  00000-0  27202-3 0  9996,2 52547  53.2172 291.3786 0001441  77.6627 282.4526 15.08846531 97125,6917.86,95.437,540.722,538.729,0.0
52547.0,STARLINK-3869,PAYLOAD,2024-02-12 20:23:33,15.08834555,0.0001315,53.2166,287.2239,82.9087,277.2055,1.321e-05,-7.8e-07,0.0,0 STARLINK-3869,1 52547U 22051Q   24043.84969466 -.00000078  00000-0  13210-4 0  9995,2 52547  53.2166 287.2239 0001315  82.9087 277.2055 15.08834555 97339,6917.897,95.438,540.672,538.852,0.0
52547.0,STARLINK-3869,PAYLOAD,2024-02-12 21:58:56,15.08837514,0.0001395,53.2165,286.9258,100.1875,259.9275,-8.1521e-05,-1.585e-05,0.0,0 STARLINK-3869,1 52547U 22051Q   24043.91593296 -.00001585  00000-0 -81521-4 0  9992,2 52547  53.2165 286.9258 0001395 100.1875 259.9275 15.08837514 97273,6917.888,95.438,540.718,538.788,0.0
52547.0,STARLINK-3869,PAYLOAD,2024-02-13 09:06:38,15.088447,0.0001487,53.2174,284.8393,82.7771,277.339,1.1494e-05,-1.05e-06,0.0,0 STARLINK-3869,1 52547U 22051Q   24044.37961171 -.00000105  00000-0  11494-4 0  9992,2 52547  53.2174 284.8393 0001487  82.7771 277.3390 15.08844700 97347,6917.866,95.437,540.76,538.702,0.0
52547.0,STARLINK-3869,PAYLOAD,2024-02-13 21:49:44,15.08836321,0.0001666,53.218,282.4601,82.205,277.9131,0.00012207,1.655e-05,0.0,0 STARLINK-3869,1 52547U 22051Q   24044.90953881  .00001655  00000-0  12207-3 0  9992,2 52547  53.2180 282.4601 0001666  82.2050 277.9131 15.08836321 97422,6917.892,95.438,540.909,538.604,0.0
52547.0,STARLINK-3869,PAYLOAD,2024-02-13 23:25:07,15.08830942,0.0001662,53.2175,282.1642,81.7302,278.3878,0.00034059,5.135e-05,0.0,0 STARLINK-3869,1 52547U 22051Q   24044.97578233  .00005135  00000-0  34059-3 0  9999,2 52547  53.2175 282.1642 0001662  81.7302 278.3878 15.08830942 97503,6917.908,95.438,540.923,538.623,0.0
52547.0,STARLINK-3869,PAYLOAD,2024-02-14 08:57:25,15.08843699,0.0001608,53.2177,280.3827,85.8405,274.277,0.00020384,2.958e-05,0.0,0 STARLINK-3869,1 52547U 22051Q   24045.37321567  .00002958  00000-0  20384-3 0  9996,2 52547  53.2177 280.3827 0001608  85.8405 274.2770 15.08843699 97564,6917.869,95.437,540.846,538.622,0.0
52547.0,STARLINK-3869,PAYLOAD,2024-02-14 21:40:30,15.08848441,0.000158,53.2173,278.0042,82.6396,277.4776,0.00018205,2.611e-05,0.0,0 STARLINK-3869,1 52547U 22051Q   24045.90313324  .00002611  00000-0  18205-3 0  9992,2 52547  53.2173 278.0042 0001580  82.6396 277.4776 15.08848441 97578,6917.855,95.437,540.813,538.627,0.0
52547.0,STARLINK-3869,PAYLOAD,2024-02-15 00:51:16,15.08853917,0.0001392,53.2158,277.4066,89.6136,270.5016,0.00025932,3.843e-05,0.0,0 STARLINK-3869,1 52547U 22051Q   24046.03560888  .00003843  00000-0  25932-3 0  9999,2 52547  53.2158 277.4066 0001392  89.6136 270.5016 15.08853917 97597,6917.838,95.437,540.666,538.74,0.0
52547.0,STARLINK-3869,PAYLOAD,2024-02-15 19:55:55,15.0883636,0.0001364,53.2169,273.8409,81.5637,278.5509,6.6823e-05,7.76e-06,0.0,0 STARLINK-3869,1 52547U 22051Q   24046.83049977  .00000776  00000-0  66823-4 0  9995,2 52547  53.2169 273.8409 0001364  81.5637 278.5509 15.08836360 97785,6917.892,95.438,540.7,538.813,0.0
52547.0,STARLINK-3869,PAYLOAD,2024-02-15 21:31:18,15.08836128,0.0001273,53.2168,273.5434,76.608,283.5054,6.4413e-05,7.37e-06,0.0,0 STARLINK-3869,1 52547U 22051Q   24046.89673992  .00000737  00000-0  64413-4 0  9991,2 52547  53.2168 273.5434 0001273  76.6080 283.5054 15.08836128 97722,6917.892,95.438,540.638,538.877,0.0
52547.0,STARLINK-3869,PAYLOAD,2024-02-16 00:42:04,15.08841822,0.0001503,53.2155,272.9468,87.7433,272.3731,7.7728e-05,9.49e-06,0.0,0 STARLINK-3869,1 52547U 22051Q   24047.02921691  .00000949  00000-0  77728-4 0  9997,2 52547  53.2155 272.9468 0001503  87.7433 272.3731 15.08841822 97746,6917.875,95.437,540.78,538.7,0.0
52547.0,STARLINK-3869,PAYLOAD,2024-02-16 19:46:41,15.08845658,0.0001588,53.2157,269.3778,88.3071,271.8103,0.00013119,1.801e-05,0.0,0 STARLINK-3869,1 52547U 22051Q   24047.82409492  .00001801  00000-0  13119-3 0  9996,2 52547  53.2157 269.3778 0001588  88.3071 271.8103 15.08845658 97939,6917.863,95.437,540.827,538.63,0.0
52547.0,STARLINK-3869,PAYLOAD,2024-02-16 21:22:04,15.08847455,0.0001569,53.2165,269.076,94.7399,265.3772,0.000144,2.005e-05,0.0,0 STARLINK-3869,1 52547U 22051Q   24047.89033378  .00002005  00000-0  14400-3 0  9990,2 52547  53.2165 269.0760 0001569  94.7399 265.3772 15.08847455 97879,6917.858,95.437,540.808,538.637,0.0
52547.0,STARLINK-3869,PAYLOAD,2024-02-17 00:32:51,15.08847349,0.0001569,53.2166,268.4825,99.5881,260.5289,0.00022721,3.331e-05,0.0,0 STARLINK-3869,1 52547U 22051Q   24048.02281401  .00003331  00000-0  22721-3 0  9996,2 52547  53.2166 268.4825 0001569  99.5881 260.5289 15.08847349 97898,6917.858,95.437,540.808,538.638,0.0
52547.0,STARLINK-3869,PAYLOAD,2024-02-17 19:37:29,15.08837153,0.0001611,53.2168,264.9132,97.0376,263.08,9.1919e-05,1.175e-05,0.0,0 STARLINK-3869,1 52547U 22051Q   24048.81769951  .00001175  00000-0  91919-4 0  9994,2 52547  53.2168 264.9132 0001611  97.0376 263.0800 15.08837153 98083,6917.889,95.438,540.869,538.64,0.0
52547.0,STARLINK-3869,PAYLOAD,2024-02-17 21:12:52,15.08841401,0.0001473,53.2161,264.616,91.1664,268.9497,0.00015622,2.199e-05,0.0,0 STARLINK-3869,1 52547U 22051Q   24048.88393784  .00002199  00000-0  15622-3 0  9991,2 52547  53.2161 264.6160 0001473  91.1664 268.9497 15.08841401 98026,6917.876,95.437,540.76,538.722,0.0
